{
  "type": "FeatureCollection",
  "features": [
    {
      "type": "Feature",
      "properties": {
        "norad_id": 66898,
        "name": "STARLINK-36065",
        "group": "last-30-days",
        "lat": -42.57989445071539,
        "lon": -37.92953776292399,
        "alt_km": 402.68219864806815,
        "timestamp": "2025-12-26T10:30:48.976103+00:00",
        "meta_object_name": "STARLINK-36065",
        "meta_object_id": "2025-283W",
        "meta_epoch": "2025-12-26T04:00:01.998720",
        "meta_mean_motion": 15.57838478,
        "meta_eccentricity": 0.0001505,
        "meta_inclination": 53.1597,
        "meta_ra_of_asc_node": 6.9293,
        "meta_arg_of_pericenter": 89.3712,
        "meta_mean_anomaly": 130.7345,
        "meta_ephemeris_type": 0,
        "meta_classification_type": "U",
        "meta_norad_cat_id": 66898,
        "meta_element_set_no": 999,
        "meta_rev_at_epoch": 458,
        "meta_bstar": -0.030087,
        "meta_mean_motion_dot": -0.02001799,
        "meta_mean_motion_ddot": 0,
        "tle_line1": "1 66898U 25283W   25360.16668980 -.02001799  00000+0 -30087-1 0  9995",
        "tle_line2": "2 66898  53.1597   6.9293 0001505  89.3712 130.7345 15.57838478  4585"
      },
      "geometry": {
        "type": "Point",
        "coordinates": [
          -37.92953776292399,
          -42.57989445071539
        ]
      }
    },
    {
      "type": "Feature",
      "properties": {
        "norad_id": 66899,
        "name": "STARLINK-36064",
        "group": "last-30-days",
        "lat": -41.45012636830746,
        "lon": -35.852071899957735,
        "alt_km": 402.64229761680417,
        "timestamp": "2025-12-26T10:30:48.976115+00:00",
        "meta_object_name": "STARLINK-36064",
        "meta_object_id": "2025-283X",
        "meta_epoch": "2025-12-26T04:00:01.998720",
        "meta_mean_motion": 15.57837833,
        "meta_eccentricity": 0.0001559,
        "meta_inclination": 53.1595,
        "meta_ra_of_asc_node": 6.9254,
        "meta_arg_of_pericenter": 88.4379,
        "meta_mean_anomaly": 133.5877,
        "meta_ephemeris_type": 0,
        "meta_classification_type": "U",
        "meta_norad_cat_id": 66899,
        "meta_element_set_no": 999,
        "meta_rev_at_epoch": 452,
        "meta_bstar": -0.030101,
        "meta_mean_motion_dot": -0.02002595,
        "meta_mean_motion_ddot": 0,
        "tle_line1": "1 66899U 25283X   25360.16668980 -.02002595  00000+0 -30101-1 0  9998",
        "tle_line2": "2 66899  53.1595   6.9254 0001559  88.4379 133.5877 15.57837833  4528"
      },
      "geometry": {
        "type": "Point",
        "coordinates": [
          -35.852071899957735,
          -41.45012636830746
        ]
      }
    },
    {
      "type": "Feature",
      "properties": {
        "norad_id": 66900,
        "name": "STARLINK-36074",
        "group": "last-30-days",
        "lat": -40.28601569707581,
        "lon": -33.8503849518994,
        "alt_km": 402.61105921827766,
        "timestamp": "2025-12-26T10:30:48.976125+00:00",
        "meta_object_name": "STARLINK-36074",
        "meta_object_id": "2025-283Y",
        "meta_epoch": "2025-12-26T04:00:01.998720",
        "meta_mean_motion": 15.57833909,
        "meta_eccentricity": 0.0001607,
        "meta_inclination": 53.1593,
        "meta_ra_of_asc_node": 6.9212,
        "meta_arg_of_pericenter": 89.9764,
        "meta_mean_anomaly": 133.9659,
        "meta_ephemeris_type": 0,
        "meta_classification_type": "U",
        "meta_norad_cat_id": 66900,
        "meta_element_set_no": 999,
        "meta_rev_at_epoch": 458,
        "meta_bstar": -0.02998,
        "meta_mean_motion_dot": -0.01995308,
        "meta_mean_motion_ddot": 0,
        "tle_line1": "1 66900U 25283Y   25360.16668980 -.01995308  00000+0 -29980-1 0  9996",
        "tle_line2": "2 66900  53.1593   6.9212 0001607  89.9764 133.9659 15.57833909  4589"
      },
      "geometry": {
        "type": "Point",
        "coordinates": [
          -33.8503849518994,
          -40.28601569707581
        ]
      }
    },
    {
      "type": "Feature",
      "properties": {
        "norad_id": 66901,
        "name": "STARLINK-36043",
        "group": "last-30-days",
        "lat": -39.086811841005286,
        "lon": -31.914773524800154,
        "alt_km": 402.50923698192037,
        "timestamp": "2025-12-26T10:30:48.976135+00:00",
        "meta_object_name": "STARLINK-36043",
        "meta_object_id": "2025-283Z",
        "meta_epoch": "2025-12-26T04:00:01.998720",
        "meta_mean_motion": 15.57844546,
        "meta_eccentricity": 0.0001595,
        "meta_inclination": 53.1593,
        "meta_ra_of_asc_node": 6.9169,
        "meta_arg_of_pericenter": 88.411,
        "meta_mean_anomaly": 137.4442,
        "meta_ephemeris_type": 0,
        "meta_classification_type": "U",
        "meta_norad_cat_id": 66901,
        "meta_element_set_no": 999,
        "meta_rev_at_epoch": 458,
        "meta_bstar": -0.030223,
        "meta_mean_motion_dot": -0.02010174,
        "meta_mean_motion_ddot": 0,
        "tle_line1": "1 66901U 25283Z   25360.16668980 -.02010174  00000+0 -30223-1 0  9999",
        "tle_line2": "2 66901  53.1593   6.9169 0001595  88.4110 137.4442 15.57844546  4584"
      },
      "geometry": {
        "type": "Point",
        "coordinates": [
          -31.914773524800154,
          -39.086811841005286
        ]
      }
    },
    {
      "type": "Feature",
      "properties": {
        "norad_id": 66902,
        "name": "STARLINK-35983",
        "group": "last-30-days",
        "lat": -37.85821490091803,
        "lon": -30.04563212472808,
        "alt_km": 402.42172454796855,
        "timestamp": "2025-12-26T10:30:48.976145+00:00",
        "meta_object_name": "STARLINK-35983",
        "meta_object_id": "2025-283AA",
        "meta_epoch": "2025-12-26T04:00:01.998720",
        "meta_mean_motion": 15.5783827,
        "meta_eccentricity": 0.0001534,
        "meta_inclination": 53.1598,
        "meta_ra_of_asc_node": 6.9135,
        "meta_arg_of_pericenter": 90.6626,
        "meta_mean_anomaly": 137.1109,
        "meta_ephemeris_type": 0,
        "meta_classification_type": "U",
        "meta_norad_cat_id": 66902,
        "meta_element_set_no": 999,
        "meta_rev_at_epoch": 458,
        "meta_bstar": -0.030088,
        "meta_mean_motion_dot": -0.0200185,
        "meta_mean_motion_ddot": 0,
        "tle_line1": "1 66902U 25283AA  25360.16668980 -.02001850  00000+0 -30088-1 0  9990",
        "tle_line2": "2 66902  53.1598   6.9135 0001534  90.6626 137.1109 15.57838270  4587"
      },
      "geometry": {
        "type": "Point",
        "coordinates": [
          -30.04563212472808,
          -37.85821490091803
        ]
      }
    },
    {
      "type": "Feature",
      "properties": {
        "norad_id": 66903,
        "name": "STARLINK-36077",
        "group": "last-30-days",
        "lat": -36.60066833798618,
        "lon": -28.239120603903782,
        "alt_km": 402.3531742805626,
        "timestamp": "2025-12-26T10:30:48.976155+00:00",
        "meta_object_name": "STARLINK-36077",
        "meta_object_id": "2025-283AB",
        "meta_epoch": "2025-12-26T04:00:01.998720",
        "meta_mean_motion": 15.57835521,
        "meta_eccentricity": 0.0001562,
        "meta_inclination": 53.1599,
        "meta_ra_of_asc_node": 6.9098,
        "meta_arg_of_pericenter": 91.0186,
        "meta_mean_anomaly": 138.6717,
        "meta_ephemeris_type": 0,
        "meta_classification_type": "U",
        "meta_norad_cat_id": 66903,
        "meta_element_set_no": 999,
        "meta_rev_at_epoch": 458,
        "meta_bstar": -0.029998,
        "meta_mean_motion_dot": -0.01996454,
        "meta_mean_motion_ddot": 0,
        "tle_line1": "1 66903U 25283AB  25360.16668980 -.01996454  00000+0 -29998-1 0  9991",
        "tle_line2": "2 66903  53.1599   6.9098 0001562  91.0186 138.6717 15.57835521  4581"
      },
      "geometry": {
        "type": "Point",
        "coordinates": [
          -28.239120603903782,
          -36.60066833798618
        ]
      }
    },
    {
      "type": "Feature",
      "properties": {
        "norad_id": 66904,
        "name": "STARLINK-36059",
        "group": "last-30-days",
        "lat": -35.3155396427349,
        "lon": -26.491172805755298,
        "alt_km": 402.25270566944073,
        "timestamp": "2025-12-26T10:30:48.976165+00:00",
        "meta_object_name": "STARLINK-36059",
        "meta_object_id": "2025-283AC",
        "meta_epoch": "2025-12-26T04:00:01.998720",
        "meta_mean_motion": 15.57834894,
        "meta_eccentricity": 0.0001507,
        "meta_inclination": 53.1596,
        "meta_ra_of_asc_node": 6.9053,
        "meta_arg_of_pericenter": 92.6853,
        "meta_mean_anomaly": 138.9216,
        "meta_ephemeris_type": 0,
        "meta_classification_type": "U",
        "meta_norad_cat_id": 66904,
        "meta_element_set_no": 999,
        "meta_rev_at_epoch": 458,
        "meta_bstar": -0.029989,
        "meta_mean_motion_dot": -0.01995839,
        "meta_mean_motion_ddot": 0,
        "tle_line1": "1 66904U 25283AC  25360.16668980 -.01995839  00000+0 -29989-1 0  9998",
        "tle_line2": "2 66904  53.1596   6.9053 0001507  92.6853 138.9216 15.57834894  4586"
      },
      "geometry": {
        "type": "Point",
        "coordinates": [
          -26.491172805755298,
          -35.3155396427349
        ]
      }
    }
  ]
}